[{"OBJECT_NAME":"STARLINK-32547","OBJECT_ID":"2024-207H","EPOCH":"2026-03-09T22:20:27.777120","MEAN_MOTION":15.27587154,"ECCENTRICITY":0.00027134,"INCLINATION":43.0018,"RA_OF_ASC_NODE":279.9755,"ARG_OF_PERICENTER":260.3906,"MEAN_ANOMALY":99.6639,"EPHEMERIS_TYPE":0,"CLASSIFICATION_TYPE":"U","NORAD_CAT_ID":61919,"ELEMENT_SET_NO":999,"REV_AT_EPOCH":7475,"BSTAR":0.00090826903,"MEAN_MOTION_DOT":0.00024822,"MEAN_MOTION_DDOT":0},{"OBJECT_NAME":"GEOSCAN 1 (RS92S1)","OBJECT_ID":"2025-155E","EPOCH":"2026-03-09T22:44:05.846496","MEAN_MOTION":15.28410635,"ECCENTRICITY":0.00087099,"INCLINATION":97.4463,"RA_OF_ASC_NODE":37.403,"ARG_OF_PERICENTER":153.6429,"MEAN_ANOMALY":206.5255,"EPHEMERIS_TYPE":0,"CLASSIFICATION_TYPE":"U","NORAD_CAT_ID":64880,"ELEMENT_SET_NO":999,"REV_AT_EPOCH":6560,"BSTAR":0.00054367431,"MEAN_MOTION_DOT":0.00014993,"MEAN_MOTION_DDOT":0}]
